{
  "type": "FeatureCollection",
  "features": [
    {
      "type": "Feature",
      "properties": {
        "norad_id": 35616,
        "name": "IRIDIUM 33 DEB",
        "group": "iridium-33-debris",
        "lat": -51.79749875494576,
        "lon": -24.416338985345035,
        "alt_km": 637.7700994784063,
        "timestamp": "2025-12-24T20:42:21.411119+00:00",
        "meta_object_name": "IRIDIUM 33 DEB",
        "meta_object_id": "1997-051QN",
        "meta_epoch": "2025-12-21T16:46:45.287328",
        "meta_mean_motion": 14.82015021,
        "meta_eccentricity": 0.00114093,
        "meta_inclination": 86.3545,
        "meta_ra_of_asc_node": 341.6744,
        "meta_arg_of_pericenter": 134.0095,
        "meta_mean_anomaly": 226.2069,
        "meta_ephemeris_type": 0,
        "meta_classification_type": "U",
        "meta_norad_cat_id": 35616,
        "meta_element_set_no": 999,
        "meta_rev_at_epoch": 87707,
        "meta_bstar": 0.0013754653,
        "meta_mean_motion_dot": 0.00010957,
        "meta_mean_motion_ddot": 0,
        "tle_line1": "1 35616U 97051QN  25355.69913527  .00010957  00000+0  13755-2 0  9999",
        "tle_line2": "2 35616  86.3545 341.6744 0011409 134.0095 226.2069 14.82015021877070"
      },
      "geometry": {
        "type": "Point",
        "coordinates": [
          -24.416338985345035,
          -51.79749875494576
        ]
      }
    },
    {
      "type": "Feature",
      "properties": {
        "norad_id": 35618,
        "name": "IRIDIUM 33 DEB",
        "group": "iridium-33-debris",
        "lat": -42.216852488079645,
        "lon": 171.5333223369295,
        "alt_km": 734.3448092828967,
        "timestamp": "2025-12-24T20:42:21.411128+00:00",
        "meta_object_name": "IRIDIUM 33 DEB",
        "meta_object_id": "1997-051QQ",
        "meta_epoch": "2025-12-21T17:16:24.492288",
        "meta_mean_motion": 14.52331103,
        "meta_eccentricity": 0.00284149,
        "meta_inclination": 86.341,
        "meta_ra_of_asc_node": 349.5786,
        "meta_arg_of_pericenter": 351.4344,
        "meta_mean_anomaly": 8.6373,
        "meta_ephemeris_type": 0,
        "meta_classification_type": "U",
        "meta_norad_cat_id": 35618,
        "meta_element_set_no": 999,
        "meta_rev_at_epoch": 65524,
        "meta_bstar": 0.00039049847,
        "meta_mean_motion_dot": 1.617e-05,
        "meta_mean_motion_ddot": 0,
        "tle_line1": "1 35618U 97051QQ  25355.71972792  .00001617  00000+0  39050-3 0  9993",
        "tle_line2": "2 35618  86.3410 349.5786 0028414 351.4344   8.6373 14.52331103655244"
      },
      "geometry": {
        "type": "Point",
        "coordinates": [
          171.5333223369295,
          -42.216852488079645
        ]
      }
    },
    {
      "type": "Feature",
      "properties": {
        "norad_id": 35620,
        "name": "IRIDIUM 33 DEB",
        "group": "iridium-33-debris",
        "lat": -46.93714909920026,
        "lon": -151.5336104861505,
        "alt_km": 776.9018256897944,
        "timestamp": "2025-12-24T20:42:21.411138+00:00",
        "meta_object_name": "IRIDIUM 33 DEB",
        "meta_object_id": "1997-051QS",
        "meta_epoch": "2025-12-24T00:53:30.549696",
        "meta_mean_motion": 14.38385762,
        "meta_eccentricity": 0.01384692,
        "meta_inclination": 86.3889,
        "meta_ra_of_asc_node": 212.6892,
        "meta_arg_of_pericenter": 221.3129,
        "meta_mean_anomaly": 137.7531,
        "meta_ephemeris_type": 0,
        "meta_classification_type": "U",
        "meta_norad_cat_id": 35620,
        "meta_element_set_no": 999,
        "meta_rev_at_epoch": 60128,
        "meta_bstar": 0.0046388271,
        "meta_mean_motion_dot": 0.00015845,
        "meta_mean_motion_ddot": 0,
        "tle_line1": "1 35620U 97051QS  25358.03715914  .00015845  00000+0  46388-2 0  9994",
        "tle_line2": "2 35620  86.3889 212.6892 0138469 221.3129 137.7531 14.38385762601282"
      },
      "geometry": {
        "type": "Point",
        "coordinates": [
          -151.5336104861505,
          -46.93714909920026
        ]
      }
    },
    {
      "type": "Feature",
      "properties": {
        "norad_id": 35622,
        "name": "IRIDIUM 33 DEB",
        "group": "iridium-33-debris",
        "lat": 80.70799318563905,
        "lon": -78.40078714140606,
        "alt_km": 543.5233672048116,
        "timestamp": "2025-12-24T20:42:21.411160+00:00",
        "meta_object_name": "IRIDIUM 33 DEB",
        "meta_object_id": "1997-051QU",
        "meta_epoch": "2025-12-23T17:21:42.229152",
        "meta_mean_motion": 15.05849301,
        "meta_eccentricity": 0.0003572,
        "meta_inclination": 86.199,
        "meta_ra_of_asc_node": 258.1866,
        "meta_arg_of_pericenter": 286.0081,
        "meta_mean_anomaly": 102.9668,
        "meta_ephemeris_type": 0,
        "meta_classification_type": "U",
        "meta_norad_cat_id": 35622,
        "meta_element_set_no": 999,
        "meta_rev_at_epoch": 87525,
        "meta_bstar": 0.0038142437,
        "meta_mean_motion_dot": 0.00055737,
        "meta_mean_motion_ddot": 0,
        "tle_line1": "1 35622U 97051QU  25357.72340543  .00055737  00000+0  38142-2 0  9996",
        "tle_line2": "2 35622  86.1990 258.1866 0003572 286.0081 102.9668 15.05849301875256"
      },
      "geometry": {
        "type": "Point",
        "coordinates": [
          -78.40078714140606,
          80.70799318563905
        ]
      }
    },
    {
      "type": "Feature",
      "properties": {
        "norad_id": 35628,
        "name": "IRIDIUM 33 DEB",
        "group": "iridium-33-debris",
        "lat": 68.18567942067922,
        "lon": 12.826650939691902,
        "alt_km": 666.1507187409024,
        "timestamp": "2025-12-24T20:42:21.411179+00:00",
        "meta_object_name": "IRIDIUM 33 DEB",
        "meta_object_id": "1997-051RA",
        "meta_epoch": "2025-12-24T07:18:18.749088",
        "meta_mean_motion": 14.67742209,
        "meta_eccentricity": 0.00093407,
        "meta_inclination": 86.3568,
        "meta_ra_of_asc_node": 3.9163,
        "meta_arg_of_pericenter": 298.0786,
        "meta_mean_anomaly": 61.9483,
        "meta_ephemeris_type": 0,
        "meta_classification_type": "U",
        "meta_norad_cat_id": 35628,
        "meta_element_set_no": 999,
        "meta_rev_at_epoch": 86616,
        "meta_bstar": 0.0014718585,
        "meta_mean_motion_dot": 8.414e-05,
        "meta_mean_motion_ddot": 0,
        "tle_line1": "1 35628U 97051RA  25358.30438367  .00008414  00000+0  14719-2 0  9993",
        "tle_line2": "2 35628  86.3568   3.9163 0009340 298.0786  61.9483 14.67742209866160"
      },
      "geometry": {
        "type": "Point",
        "coordinates": [
          12.826650939691902,
          68.18567942067922
        ]
      }
    },
    {
      "type": "Feature",
      "properties": {
        "norad_id": 35631,
        "name": "IRIDIUM 33 DEB",
        "group": "iridium-33-debris",
        "lat": 21.418497319661572,
        "lon": -165.67389361760854,
        "alt_km": 731.1015618351703,
        "timestamp": "2025-12-24T20:42:21.411196+00:00",
        "meta_object_name": "IRIDIUM 33 DEB",
        "meta_object_id": "1997-051RD",
        "meta_epoch": "2025-12-23T19:55:07.145184",
        "meta_mean_motion": 14.47339905,
        "meta_eccentricity": 0.00192581,
        "meta_inclination": 86.366,
        "meta_ra_of_asc_node": 16.1993,
        "meta_arg_of_pericenter": 85.1182,
        "meta_mean_anomaly": 95.1858,
        "meta_ephemeris_type": 0,
        "meta_classification_type": "U",
        "meta_norad_cat_id": 35631,
        "meta_element_set_no": 999,
        "meta_rev_at_epoch": 87357,
        "meta_bstar": 0.00033517524,
        "meta_mean_motion_dot": 1.25e-05,
        "meta_mean_motion_ddot": 0,
        "tle_line1": "1 35631U 97051RD  25357.82994381  .00001250  00000+0  33518-3 0  9996",
        "tle_line2": "2 35631  86.3660  16.1993 0019258  85.1182  95.1858 14.47339905873579"
      },
      "geometry": {
        "type": "Point",
        "coordinates": [
          -165.67389361760854,
          21.418497319661572
        ]
      }
    },
    {
      "type": "Feature",
      "properties": {
        "norad_id": 35680,
        "name": "IRIDIUM 33 DEB",
        "group": "iridium-33-debris",
        "lat": 62.091652581096,
        "lon": 23.55020073487369,
        "alt_km": 923.981343140109,
        "timestamp": "2025-12-24T20:42:21.411212+00:00",
        "meta_object_name": "IRIDIUM 33 DEB",
        "meta_object_id": "1997-051RJ",
        "meta_epoch": "2025-12-23T19:54:46.036800",
        "meta_mean_motion": 14.21087614,
        "meta_eccentricity": 0.01506225,
        "meta_inclination": 86.102,
        "meta_ra_of_asc_node": 16.6115,
        "meta_arg_of_pericenter": 242.9908,
        "meta_mean_anomaly": 297.7564,
        "meta_ephemeris_type": 0,
        "meta_classification_type": "U",
        "meta_norad_cat_id": 35680,
        "meta_element_set_no": 999,
        "meta_rev_at_epoch": 60858,
        "meta_bstar": 0.0032353227,
        "meta_mean_motion_dot": 7.897e-05,
        "meta_mean_motion_ddot": 0,
        "tle_line1": "1 35680U 97051RJ  25357.82969950  .00007897  00000+0  32353-2 0  9992",
        "tle_line2": "2 35680  86.1020  16.6115 0150622 242.9908 297.7564 14.21087614608582"
      },
      "geometry": {
        "type": "Point",
        "coordinates": [
          23.55020073487369,
          62.091652581096
        ]
      }
    }
  ]
}